start=new Date('2023-06-01T00:00:00.000Z').valueOf();
sats=[{"ELEMENT_SET_NO":"999","CENTER_NAME":"EARTH","SEMIMAJOR_AXIS":"6925.328","REV_AT_EPOCH":"11398","RCS_SIZE":"LARGE","RA_OF_ASC_NODE":"47.9902","ECCENTRICITY":"0.00016690","TLE_LINE2":"2 48444  53.0551  47.9902 0001669 114.3807 245.7356 15.06406665113985","EPHEMERIS_TYPE":"0","MEAN_MOTION_DOT":"0.00017353","MEAN_MOTION":"15.06406665","APOAPSIS":"548.349","OBJECT_ID":"2021-040S","ARG_OF_PERICENTER":"114.3807","EPOCH":"2023-05-31T22:44:27.297888","LAUNCH_DATE":"2021-05-09","DECAY_DATE":null,"SITE":"AFETR","OBJECT_TYPE":"PAYLOAD","TLE_LINE1":"1 48444U 21040S   23151.94753817  .00017353  00000-0  11808-2 0  9996","NORAD_CAT_ID":"48444","CLASSIFICATION_TYPE":"U","PERIAPSIS":"546.037","OBJECT_NAME":"STARLINK-2645","BSTAR":"0.00118080000000","PERIOD":"95.592","INCLINATION":"53.0551","GP_ID":"232925556","COUNTRY_CODE":"US","MEAN_ANOMALY":"245.7356","MEAN_ELEMENT_THEORY":"SGP4","FILE":"3922037","MEAN_MOTION_DDOT":"0.0000000000000","REF_FRAME":"TEME","TIME_SYSTEM":"UTC"},{"OBJECT_NAME":"STARLINK-2634","PERIAPSIS":"546.473","CLASSIFICATION_TYPE":"U","NORAD_CAT_ID":"48445","TIME_SYSTEM":"UTC","MEAN_MOTION_DDOT":"0.0000000000000","REF_FRAME":"TEME","FILE":"3922037","MEAN_ANOMALY":"261.3535","MEAN_ELEMENT_THEORY":"SGP4","COUNTRY_CODE":"US","GP_ID":"232926807","PERIOD":"95.592","INCLINATION":"53.0560","BSTAR":"0.00027496000000","EPOCH":"2023-05-31T22:39:08.296128","ARG_OF_PERICENTER":"98.7575","OBJECT_ID":"2021-040T","APOAPSIS":"547.951","MEAN_MOTION_DOT":"0.00003817","MEAN_MOTION":"15.06400556","TLE_LINE1":"1 48445U 21040T   23151.94384602  .00003817  00000-0  27496-3 0  9990","OBJECT_TYPE":"PAYLOAD","SITE":"AFETR","DECAY_DATE":null,"LAUNCH_DATE":"2021-05-09","RCS_SIZE":"LARGE","RA_OF_ASC_NODE":"48.0137","EPHEMERIS_TYPE":"0","TLE_LINE2":"2 48445  53.0560  48.0137 0001067  98.7575 261.3535 15.06400556113983","ECCENTRICITY":"0.00010670","SEMIMAJOR_AXIS":"6925.347","CENTER_NAME":"EARTH","ELEMENT_SET_NO":"999","REV_AT_EPOCH":"11398"},{"LAUNCH_DATE":"2021-05-09","DECAY_DATE":null,"OBJECT_TYPE":"PAYLOAD","SITE":"AFETR","TLE_LINE1":"1 48446U 21040U   23151.94016503  .00007067  00000-0  49277-3 0  9995","MEAN_MOTION":"15.06404205","MEAN_MOTION_DOT":"0.00007067","OBJECT_ID":"2021-040U","APOAPSIS":"547.958","ARG_OF_PERICENTER":"83.0890","EPOCH":"2023-05-31T22:33:50.258592","GP_ID":"232927058","COUNTRY_CODE":"US","PERIOD":"95.592","INCLINATION":"53.0555","BSTAR":"0.00049277000000","MEAN_ANOMALY":"277.0224","MEAN_ELEMENT_THEORY":"SGP4","FILE":"3922037","TIME_SYSTEM":"UTC","MEAN_MOTION_DDOT":"0.0000000000000","REF_FRAME":"TEME","CLASSIFICATION_TYPE":"U","NORAD_CAT_ID":"48446","PERIAPSIS":"546.444","OBJECT_NAME":"STARLINK-2247","REV_AT_EPOCH":"11398","ELEMENT_SET_NO":"999","SEMIMAJOR_AXIS":"6925.336","CENTER_NAME":"EARTH","ECCENTRICITY":"0.00010930","EPHEMERIS_TYPE":"0","TLE_LINE2":"2 48446  53.0555  48.0250 0001093  83.0890 277.0224 15.06404205113984","RCS_SIZE":"LARGE","RA_OF_ASC_NODE":"48.0250"},{"OBJECT_NAME":"STARLINK-2269","CLASSIFICATION_TYPE":"U","NORAD_CAT_ID":"48447","PERIAPSIS":"546.398","FILE":"3922037","TIME_SYSTEM":"UTC","MEAN_MOTION_DDOT":"0.0000000000000","REF_FRAME":"TEME","GP_ID":"232925806","COUNTRY_CODE":"US","INCLINATION":"53.0564","PERIOD":"95.592","BSTAR":"0.00048645000000","MEAN_ELEMENT_THEORY":"SGP4","MEAN_ANOMALY":"249.1760","ARG_OF_PERICENTER":"110.9354","EPOCH":"2023-05-31T22:28:31.800288","MEAN_MOTION_DOT":"0.00006972","MEAN_MOTION":"15.06402955","OBJECT_ID":"2021-040V","APOAPSIS":"548.011","OBJECT_TYPE":"PAYLOAD","SITE":"AFETR","TLE_LINE1":"1 48447U 21040V   23151.93647917  .00006972  00000-0  48645-3 0  9996","LAUNCH_DATE":"2021-05-09","DECAY_DATE":null,"RA_OF_ASC_NODE":"48.0378","RCS_SIZE":"LARGE","ECCENTRICITY":"0.00011650","EPHEMERIS_TYPE":"0","TLE_LINE2":"2 48447  53.0564  48.0378 0001165 110.9354 249.1760 15.06402955113986","SEMIMAJOR_AXIS":"6925.340","CENTER_NAME":"EARTH","ELEMENT_SET_NO":"999","REV_AT_EPOCH":"11398"},{"CLASSIFICATION_TYPE":"U","NORAD_CAT_ID":"48448","PERIAPSIS":"546.315","OBJECT_NAME":"STARLINK-2632","GP_ID":"232926056","COUNTRY_CODE":"US","PERIOD":"95.592","BSTAR":"0.00111130000000","INCLINATION":"53.0548","MEAN_ELEMENT_THEORY":"SGP4","MEAN_ANOMALY":"259.4185","FILE":"3922037","TIME_SYSTEM":"UTC","REF_FRAME":"TEME","MEAN_MOTION_DDOT":"0.0000000000000","MEAN_MOTION_DOT":"0.00016310","MEAN_MOTION":"15.06400205","OBJECT_ID":"2021-040W","APOAPSIS":"548.110","ARG_OF_PERICENTER":"100.6950","EPOCH":"2023-05-31T21:28:46.807680","LAUNCH_DATE":"2021-05-09","DECAY_DATE":null,"OBJECT_TYPE":"PAYLOAD","SITE":"AFETR","TLE_LINE1":"1 48448U 21040W   23151.89498620  .00016310  00000-0  11113-2 0  9993","RA_OF_ASC_NODE":"48.2281","RCS_SIZE":"LARGE","ECCENTRICITY":"0.00012960","EPHEMERIS_TYPE":"0","TLE_LINE2":"2 48448  53.0548  48.2281 0001296 100.6950 259.4185 15.06400205113977","ELEMENT_SET_NO":"999","SEMIMAJOR_AXIS":"6925.348","CENTER_NAME":"EARTH","REV_AT_EPOCH":"11397"},{"REV_AT_EPOCH":"11398","CENTER_NAME":"EARTH","SEMIMAJOR_AXIS":"6925.343","ELEMENT_SET_NO":"999","TLE_LINE2":"2 48449  53.0549  48.0535 0001762 131.6215 228.4925 15.06401855113986","EPHEMERIS_TYPE":"0","ECCENTRICITY":"0.00017620","RCS_SIZE":"LARGE","RA_OF_ASC_NODE":"48.0535","TLE_LINE1":"1 48449U 21040X   23151.93278527  .00002925  00000-0  21517-3 0  9998","SITE":"AFETR","OBJECT_TYPE":"PAYLOAD","DECAY_DATE":null,"LAUNCH_DATE":"2021-05-09","EPOCH":"2023-05-31T22:23:12.647328","ARG_OF_PERICENTER":"131.6215","APOAPSIS":"548.428","OBJECT_ID":"2021-040X","MEAN_MOTION_DOT":"0.00002925","MEAN_MOTION":"15.06401855","REF_FRAME":"TEME","MEAN_MOTION_DDOT":"0.0000000000000","TIME_SYSTEM":"UTC","FILE":"3922037","MEAN_ANOMALY":"228.4925","MEAN_ELEMENT_THEORY":"SGP4","PERIOD":"95.592","BSTAR":"0.00021517000000","INCLINATION":"53.0549","GP_ID":"232926308","COUNTRY_CODE":"US","OBJECT_NAME":"STARLINK-2655","PERIAPSIS":"545.988","NORAD_CAT_ID":"48449","CLASSIFICATION_TYPE":"U"},{"RCS_SIZE":"LARGE","RA_OF_ASC_NODE":"48.0760","ECCENTRICITY":"0.00011750","TLE_LINE2":"2 48450  53.0548  48.0760 0001175 101.5295 258.5826 15.06402616113989","EPHEMERIS_TYPE":"0","CENTER_NAME":"EARTH","SEMIMAJOR_AXIS":"6925.341","ELEMENT_SET_NO":"999","REV_AT_EPOCH":"11398","OBJECT_NAME":"STARLINK-2660","NORAD_CAT_ID":"48450","CLASSIFICATION_TYPE":"U","PERIAPSIS":"546.392","FILE":"3922037","REF_FRAME":"TEME","MEAN_MOTION_DDOT":"0.0000000000000","TIME_SYSTEM":"UTC","PERIOD":"95.592","INCLINATION":"53.0548","BSTAR":"0.00137610000000","COUNTRY_CODE":"US","GP_ID":"232926559","MEAN_ELEMENT_THEORY":"SGP4","MEAN_ANOMALY":"258.5826","ARG_OF_PERICENTER":"101.5295","EPOCH":"2023-05-31T22:17:54.503520","MEAN_MOTION_DOT":"0.00020276","MEAN_MOTION":"15.06402616","APOAPSIS":"548.019","OBJECT_ID":"2021-040Y","SITE":"AFETR","OBJECT_TYPE":"PAYLOAD","TLE_LINE1":"1 48450U 21040Y   23151.92910305  .00020276  00000-0  13761-2 0  9996","LAUNCH_DATE":"2021-05-09","DECAY_DATE":null},{"ELEMENT_SET_NO":"999","CENTER_NAME":"EARTH","SEMIMAJOR_AXIS":"6925.316","REV_AT_EPOCH":"11398","RCS_SIZE":"LARGE","RA_OF_ASC_NODE":"48.1059","TLE_LINE2":"2 48451  53.0556  48.1059 0001304  87.8431 272.2707 15.06410660113982","EPHEMERIS_TYPE":"0","ECCENTRICITY":"0.00013040","APOAPSIS":"548.084","OBJECT_ID":"2021-040Z","MEAN_MOTION_DOT":"0.00011473","MEAN_MOTION":"15.06410660","EPOCH":"2023-05-31T22:16:33.528576","ARG_OF_PERICENTER":"87.8431","DECAY_DATE":null,"LAUNCH_DATE":"2021-05-09","TLE_LINE1":"1 48451U 21040Z   23151.92816584  .00011473  00000-0  78762-3 0  9993","SITE":"AFETR","OBJECT_TYPE":"PAYLOAD","PERIAPSIS":"546.278","NORAD_CAT_ID":"48451","CLASSIFICATION_TYPE":"U","OBJECT_NAME":"STARLINK-2652","MEAN_ELEMENT_THEORY":"SGP4","MEAN_ANOMALY":"272.2707","PERIOD":"95.591","INCLINATION":"53.0556","BSTAR":"0.00078762000000","GP_ID":"232925307","COUNTRY_CODE":"US","MEAN_MOTION_DDOT":"0.0000000000000","REF_FRAME":"TEME","TIME_SYSTEM":"UTC","FILE":"3922037"},{"TLE_LINE1":"1 48452U 21040AA  23151.92541320  .00011415  00000-0  78378-3 0  9996","SITE":"AFETR","OBJECT_TYPE":"PAYLOAD","DECAY_DATE":null,"LAUNCH_DATE":"2021-05-09","EPOCH":"2023-05-31T22:12:35.700480","ARG_OF_PERICENTER":"101.8092","APOAPSIS":"547.976","OBJECT_ID":"2021-040AA","MEAN_MOTION_DOT":"0.00011415","MEAN_MOTION":"15.06410809","REF_FRAME":"TEME","MEAN_MOTION_DDOT":"0.0000000000000","TIME_SYSTEM":"UTC","FILE":"3922037","MEAN_ANOMALY":"258.3026","MEAN_ELEMENT_THEORY":"SGP4","PERIOD":"95.591","BSTAR":"0.00078378000000","INCLINATION":"53.0552","GP_ID":"232925557","COUNTRY_CODE":"US","OBJECT_NAME":"STARLINK-2703","PERIAPSIS":"546.385","NORAD_CAT_ID":"48452","CLASSIFICATION_TYPE":"U","REV_AT_EPOCH":"11398","CENTER_NAME":"EARTH","SEMIMAJOR_AXIS":"6925.315","ELEMENT_SET_NO":"999","TLE_LINE2":"2 48452  53.0552  48.0603 0001149 101.8092 258.3026 15.06410809113984","EPHEMERIS_TYPE":"0","ECCENTRICITY":"0.00011490","RA_OF_ASC_NODE":"48.0603","RCS_SIZE":"LARGE"},{"REV_AT_EPOCH":"11398","CENTER_NAME":"EARTH","SEMIMAJOR_AXIS":"6925.309","ELEMENT_SET_NO":"999","TLE_LINE2":"2 48453  53.0551  48.1066 0001213  85.0855 275.0272 15.06413069113980","EPHEMERIS_TYPE":"0","ECCENTRICITY":"0.00012130","RCS_SIZE":"LARGE","RA_OF_ASC_NODE":"48.1066","TLE_LINE1":"1 48453U 21040AB  23151.92173434  .00009556  00000-0  65931-3 0  9998","SITE":"AFETR","OBJECT_TYPE":"PAYLOAD","DECAY_DATE":null,"LAUNCH_DATE":"2021-05-09","EPOCH":"2023-05-31T22:07:17.846976","ARG_OF_PERICENTER":"85.0855","APOAPSIS":"548.014","OBJECT_ID":"2021-040AB","MEAN_MOTION_DOT":"0.00009556","MEAN_MOTION":"15.06413069","REF_FRAME":"TEME","MEAN_MOTION_DDOT":"0.0000000000000","TIME_SYSTEM":"UTC","FILE":"3922037","MEAN_ANOMALY":"275.0272","MEAN_ELEMENT_THEORY":"SGP4","PERIOD":"95.591","INCLINATION":"53.0551","BSTAR":"0.00065931000000","GP_ID":"232926808","COUNTRY_CODE":"US","OBJECT_NAME":"STARLINK-2620","PERIAPSIS":"546.333","NORAD_CAT_ID":"48453","CLASSIFICATION_TYPE":"U"}];
